1 44938U 20001AA  22365.44019064  .00001122  00000-0  94187-4 0  9996
2 44938  53.0540 153.1384 0001258  84.0853 276.0279 15.06409379164644
1 44938U 20001AA  22365.83827416  .00000268  00000-0  36901-4 0  9997
2 44938  53.0541 151.3521 0001282  77.0501 283.0631 15.06404459164708
1 44938U 20001AA  23001.10365978  .00000341  00000-0  41791-4 0  9990
2 44938  53.0542 150.1607 0001286  76.7082 283.4050 15.06405171164740
1 44938U 20001AA  23001.36904963  .00000211  00000-0  33028-4 0  9991
2 44938  53.0550 148.9728 0001249  74.2173 285.8954 15.06401367164787
1 44938U 20001AA  23001.70079398 -.00000806  00000-0 -35257-4 0  9992
2 44938  53.0545 147.4812 0001411  81.3914 278.7234 15.06388883164837
1 44938U 20001AA  23001.70079398 -.00000806  00000-0 -35257-4 0  9992
2 44938  53.0545 147.4812 0001411  81.3914 278.7234 15.06388883164837
1 44938U 20001AA  23002.43061175  .00000109  00000-0  26227-4 0  9998
2 44938  53.0542 144.2044 0001423  77.4505 282.6643 15.06388942164947
1 44938U 20001AA  23003.62485007  .00002872  00000-0  21163-3 0  9996
2 44938  53.0539 138.8434 0001438  77.1466 282.9683 15.06397798165121
1 44938U 20001AA  23003.62485007  .00002872  00000-0  21163-3 0  9996
2 44938  53.0539 138.8434 0001438  77.1466 282.9683 15.06397798165121
1 44938U 20001AA  23004.35466712  .00003181  00000-0  23233-3 0  9993
2 44938  53.0528 135.5670 0001520  76.3393 283.7765 15.06401347165235
1 44938U 20001AA  23004.62005357  .00002399  00000-0  17989-3 0  9998
2 44938  53.0532 134.3757 0001487  73.2393 286.8759 15.06403179165277
1 44938U 20001AA  23005.34985965  .00004547  00000-0  32382-3 0  9991
2 44938  53.0533 131.0995 0001482  77.5979 282.5176 15.06413824165384
1 44938U 20001AA  23005.41620543  .00004502  00000-0  32080-3 0  9993
2 44938  53.0531 130.8015 0001470  76.6378 283.4775 15.06414515165396
1 44938U 20001AA  23005.74793669  .00003237  00000-0  23601-3 0  9992
2 44938  53.0532 129.3133 0001370  64.5852 295.5279 15.06413583165446
1 44938U 20001AA  23006.34506573 -.00000249  00000-0  21559-5 0  9998
2 44938  53.0534 126.6301 0001523  75.1445 284.9713 15.06398156165534
1 44938U 20001AA  23006.74315093 -.00002707  00000-0 -16291-3 0  9994
2 44938  53.0539 124.8441 0001614  69.8502 290.2661 15.06389646165591
1 44938U 20001AA  23006.74315093 -.00002707  00000-0 -16291-3 0  9994
2 44938  53.0539 124.8441 0001614  69.8502 290.2661 15.06389646165591
1 44938U 20001AA  23007.00853305 -.00000967  00000-0 -46059-4 0  9999
2 44938  53.0537 123.6533 0000802  78.0158 282.0921 15.06398120165635
1 44938U 20001AA  23007.27392083  .00000116  00000-0  26652-4 0  9990
2 44938  53.0531 122.4624 0000866  68.4744 291.6337 15.06399080165678
1 44938U 20001AA  23007.73835341  .00000712  00000-0  66679-4 0  9995
2 44938  53.0536 120.3776 0001069  52.3886 307.7199 15.06394007165740
1 44938U 20001AA  23008.26913487  .00000936  00000-0  81711-4 0  9994
2 44938  53.0533 117.9948 0001063  49.9621 310.1461 15.06387420165823
1 44938U 20001AA  23008.60086759  .00003955  00000-0  28427-3 0  9993
2 44938  53.0521 116.5056 0001180  45.4902 314.6183 15.06395052165873
1 44938U 20001AA  23008.66721327  .00004169  00000-0  29865-3 0  9991
2 44938  53.0528 116.2077 0001173  47.7107 312.3981 15.06397553165884
1 44938U 20001AA  23008.66721327  .00004169  00000-0  29865-3 0  9991
2 44938  53.0528 116.2077 0001173  47.7107 312.3981 15.06397553165884
1 44938U 20001AA  23009.33068320  .00001347  00000-0  10932-3 0  9993
2 44938  53.0532 113.2295 0001272  56.1799 303.9311 15.06396465165984
1 44938U 20001AA  23009.66241527  .00003405  00000-0  24733-3 0  9992
2 44938  53.0531 111.7402 0001339  59.1467 300.9654 15.06402403166039
1 44938U 20001AA  23010.25953854  .00003306  00000-0  24075-3 0  9991
2 44938  53.0482 109.0591 0002391  67.7755 292.3487 15.06405206166129
1 44938U 20001AA  23010.52492958  .00000030  00000-0  20897-4 0  9994
2 44938  53.0532 107.8685 0001512  58.2723 301.8413 15.06394623166168
1 44938U 20001AA  23010.52492958  .00000030  00000-0  20897-4 0  9994
2 44938  53.0532 107.8685 0001512  58.2723 301.8413 15.06394623166168
1 44938U 20001AA  23010.65762099  .00000005  00000-0  19209-4 0  9991
2 44938  53.0528 107.2717 0001572  61.3433 298.7714 15.06398443166186
1 44938U 20001AA  23011.05569865  .00002999  00000-0  22012-3 0  9991
2 44938  53.0524 105.4843 0001636  63.2432 296.8724 15.06406309166241
1 44938U 20001AA  23011.52012264  .00007069  00000-0  49277-3 0  9994
2 44938  53.0528 103.3998 0001550  55.1239 304.9895 15.06416981166318
1 44938U 20001AA  23011.52012264  .00007069  00000-0  49277-3 0  9994
2 44938  53.0528 103.3998 0001550  55.1239 304.9895 15.06416981166318
1 44938U 20001AA  23012.64803681 -.00001067  00000-0 -52795-4 0  9993
2 44938  53.0528  98.3365 0001507  61.1885 298.9256 15.06384813166484
1 44938U 20001AA  23012.64803681 -.00001067  00000-0 -52795-4 0  9993
2 44938  53.0528  98.3365 0001507  61.1885 298.9256 15.06384813166484
1 44938U 20001AA  23013.51055110  .00015900  00000-0  10839-2 0  9996
2 44938  53.0530  94.4640 0001471  65.7976 294.3167 15.06400079166610
1 44938U 20001AA  23013.51055110  .00015900  00000-0  10839-2 0  9996
2 44938  53.0530  94.4640 0001471  65.7976 294.3167 15.06400079166610
1 44938U 20001AA  23013.90863081  .00017666  00000-0  12016-2 0  9993
2 44938  53.0526  92.6776 0001468  65.0104 295.1037 15.06409758166671
1 44938U 20001AA  23014.24036998  .00007766  00000-0  53963-3 0  9997
2 44938  53.0524  91.1886 0001251  53.2285 306.8819 15.06400911166720
1 44938U 20001AA  23014.90384007  .00003449  00000-0  25034-3 0  9999
2 44938  53.0527  88.2092 0001994  82.4657 277.6559 15.06396923166824
1 44938U 20001AA  23015.50096333  .00002424  00000-0  18164-3 0  9996
2 44938  53.0513  85.5300 0001689  85.0567 275.0615 15.06393271166919
1 44938U 20001AA  23015.50096333  .00002424  00000-0  18164-3 0  9996
2 44938  53.0513  85.5300 0001689  85.0567 275.0615 15.06393271166919
1 44938U 20001AA  23015.89904330  .00009248  00000-0  63884-3 0  9993
2 44938  53.0516  83.7429 0001669  82.8787 277.2392 15.06406438166973
1 44938U 20001AA  23015.89904330  .00009248  00000-0  63884-3 0  9993
2 44938  53.0516  83.7429 0001669  82.8787 277.2392 15.06406438166973
1 44938U 20001AA  23016.49615689  .00016153  00000-0  11000-2 0  9991
2 44938  53.0531  81.0630 0001357  84.2945 275.8199 15.06426780167063
1 44938U 20001AA  23016.89424021  .00002720  00000-0  20141-3 0  9995
2 44938  53.0539  79.2746 0001362  92.8419 267.2726 15.06406081167125
1 44938U 20001AA  23016.89424021  .00002720  00000-0  20141-3 0  9995
2 44938  53.0539  79.2746 0001362  92.8419 267.2726 15.06406081167125
1 44938U 20001AA  23017.15963401 -.00009709  00000-0 -63413-3 0  9990
2 44938  53.0526  78.0839 0001573  96.6835 263.4333 15.06379817167161
1 44938U 20001AA  23017.42502652 -.00004069  00000-0 -25458-3 0  9998
2 44938  53.0531  76.8931 0001546  95.4365 264.6800 15.06376281167200
1 44938U 20001AA  23018.28754597  .00024124  00000-0  16327-2 0  9996
2 44938  53.0537  73.0207 0001535 101.1913 258.9248 15.06404507167332
1 44938U 20001AA  23018.42023914  .00026491  00000-0  17902-2 0  9993
2 44938  53.0543  72.4251 0001450 102.7330 257.3821 15.06409961167358
1 44938U 20001AA  23019.15004540  .00021089  00000-0  14292-2 0  9995
2 44938  53.0545  69.1492 0001561 100.1403 259.9762 15.06431884167469
1 44938U 20001AA  23019.48177012  .00020615  00000-0  13971-2 0  9993
2 44938  53.0539  67.6594 0001379  94.0894 266.0253 15.06445633167517
1 44938U 20001AA  23019.81350391  .00007571  00000-0  52622-3 0  9996
2 44938  53.0549  66.1700 0001801  84.2210 275.8985 15.06427023167562
1 44938U 20001AA  23020.07889480  .00008628  00000-0  59704-3 0  9994
2 44938  53.0535  64.9789 0003300  72.2628 287.8721 15.06424065167605
1 44938U 20001AA  23020.41062854  .00000293  00000-0  38573-4 0  9992
2 44938  53.0539  63.4898 0001467  76.3325 283.7827 15.06399167167656
1 44938U 20001AA  23020.41062854  .00000293  00000-0  38573-4 0  9992
2 44938  53.0539  63.4898 0001467  76.3325 283.7827 15.06399167167656
1 44938U 20001AA  23020.80871425  .00004904  00000-0  34798-3 0  9994
2 44938  53.0524  61.7001 0001393  67.7632 292.3505 15.06389628167717
1 44938U 20001AA  23022.13565294  .00006900  00000-0  48161-3 0  9993
2 44938  53.0536  55.7449 0001476  85.4716 274.6442 15.06404431167916
1 44938U 20001AA  23023.06450985  .00001442  00000-0  11569-3 0  9994
2 44938  53.0533  51.5765 0001631 100.1689 259.9484 15.06397905168050
1 44938U 20001AA  23024.25875653  .00002420  00000-0  18131-3 0  9998
2 44938  53.0527  46.2133 0001388  97.3089 262.8057 15.06399619168236
1 44938U 20001AA  23025.05492283  .00004272  00000-0  30555-3 0  9992
2 44938  53.0523  42.6383 0001636  92.5810 267.5366 15.06398685168354
1 44938U 20001AA  23025.32030409  .00011471  00000-0  78730-3 0  9996
2 44938  53.0547  41.4473 0001316  94.2728 265.8411 15.06419400168394
1 44938U 20001AA  23025.32030409  .00011471  00000-0  78730-3 0  9996
2 44938  53.0547  41.4473 0001316  94.2728 265.8411 15.06419400168394
1 44938U 20001AA  23026.11645630  .00006838  00000-0  47724-3 0  9992
2 44938  53.0542  37.8737 0001413  91.4201 268.6950 15.06421696168517
1 44938U 20001AA  23026.11645630  .00006838  00000-0  47724-3 0  9992
2 44938  53.0542  37.8737 0001413  91.4201 268.6950 15.06421696168517
1 44938U 20001AA  23026.84627110  .00001194  00000-0  99016-4 0  9997
2 44938  53.0538  34.5969 0001463  86.4718 273.6438 15.06407876168628
1 44938U 20001AA  23027.24436232 -.00007703  00000-0 -49903-3 0  9998
2 44938  53.0544  32.8104 0001495  79.0694 281.0463 15.06380366168684
1 44938U 20001AA  23027.77513960 -.00001967  00000-0 -11324-3 0  9992
2 44938  53.0550  30.4292 0001497  63.6647 296.4495 15.06388530168767
1 44938U 20001AA  23027.77513960 -.00001967  00000-0 -11324-3 0  9992
2 44938  53.0550  30.4292 0001497  63.6647 296.4495 15.06388530168767
1 44938U 20001AA  23028.37226454  .00020361  00000-0  13815-2 0  9991
2 44938  53.0543  27.7470 0001534  83.4579 276.6584 15.06409423168856
1 44938U 20001AA  23028.37226454  .00020361  00000-0  13815-2 0  9991
2 44938  53.0543  27.7470 0001534  83.4579 276.6584 15.06409423168856
1 44938U 20001AA  23028.83669180  .00005662  00000-0  39871-3 0  9997
2 44938  53.0541  25.6598 0001568 108.5136 251.6023 15.06399623168926
1 44938U 20001AA  23029.89824150  .00001809  00000-0  14033-3 0  9996
2 44938  53.0542  20.8953 0001606 101.7791 258.3379 15.06398885169089
1 44938U 20001AA  23030.22997594  .00003834  00000-0  27617-3 0  9990
2 44938  53.0543  19.4062 0001621 101.2195 258.8976 15.06401147169135
1 44938U 20001AA  23030.36266891  .00006050  00000-0  42466-3 0  9996
2 44938  53.0541  18.8106 0001627  97.8140 262.3034 15.06405189169158
1 44938U 20001AA  23031.35787150  .00004546  00000-0  32382-3 0  9996
2 44938  53.0541  14.3423 0001629 101.0342 259.0830 15.06405446169305
1 44938U 20001AA  23031.35787150  .00004546  00000-0  32382-3 0  9996
2 44938  53.0541  14.3423 0001629 101.0342 259.0830 15.06405446169305
